OBJECT_NAME,OBJECT_ID,EPOCH,MEAN_MOTION,ECCENTRICITY,INCLINATION,RA_OF_ASC_NODE,ARG_OF_PERICENTER,MEAN_ANOMALY,EPHEMERIS_TYPE,CLASSIFICATION_TYPE,NORAD_CAT_ID,ELEMENT_SET_NO,REV_AT_EPOCH,BSTAR,MEAN_MOTION_DOT,MEAN_MOTION_DDOT
ONEWEB-0597,2022-166X,2026-07-12T11:52:09.419808,13.21823471,.00019362,87.9233,238.9508,94.2844,265.8512,0,U,54663,999,17488,-.10892257E-3,-.32E-6,0
ONEWEB-0600,2022-166Y,2026-07-12T13:14:32.732736,13.21825604,.00019366,87.9240,238.9301,100.2402,259.8951,0,U,54664,999,17486,.13634809E-3,.69E-6,0
ONEWEB-0601,2022-166Z,2026-07-12T13:02:25.071936,13.21824927,.00018089,87.9233,238.9485,93.1688,266.9653,0,U,54665,999,17505,.16387043E-3,.81E-6,0
ONEWEB-0602,2022-166AA,2026-07-12T14:01:44.813280,13.21823797,.00018811,87.9231,238.9461,102.4058,257.7286,0,U,54666,999,17490,-.21014847E-4,.4E-7,0
ONEWEB-0603,2022-166AB,2026-07-12T14:10:13.110528,13.21823903,.00020165,87.9255,238.9036,106.6657,253.4699,0,U,54667,999,17483,.30991305E-3,.141E-5,0
ONEWEB-0604,2022-166AC,2026-07-12T13:53:15.874944,13.21824311,.00020875,87.9247,238.9221,98.5673,261.5697,0,U,54668,999,17479,-.75990141E-4,-.18E-6,0
ONEWEB-0605,2022-166AD,2026-07-12T13:43:34.582656,13.21823970,.00019307,87.9238,238.9349,82.7799,277.3555,0,U,54669,999,17486,.17087157E-4,.2E-6,0
ONEWEB-0606,2022-166AE,2026-07-12T14:15:04.625856,13.21824996,.00021693,87.9234,238.9430,101.1860,258.9518,0,U,54670,999,17492,.83705044E-4,.48E-6,0
ONEWEB-0607,2022-166AF,2026-07-12T13:26:39.291072,13.21825690,.00019235,87.9240,238.9230,95.8814,264.2539,0,U,54671,999,17489,.47748079E-4,.33E-6,0
ONEWEB-0608,2022-166AG,2026-07-12T13:36:18.241056,13.21823626,.00018161,87.9250,238.9181,82.1685,277.9656,0,U,54672,999,17490,.60311353E-4,.38E-6,0
ONEWEB-0610,2022-166AH,2026-07-12T13:07:16.563936,13.21825753,.00014631,87.9224,238.9358,92.9089,267.2213,0,U,54673,999,17480,.12255404E-3,.64E-6,0
ONEWEB-0611,2022-166AJ,2026-07-12T12:57:33.153984,13.21826073,.0002204,87.9234,238.9305,97.9157,262.2227,0,U,54674,999,17479,-.55830069E-4,-.1E-6,0
ONEWEB-0612,2022-166AK,2026-07-12T13:16:57.420768,13.21826308,.00019655,87.9245,238.9271,92.7803,267.3556,0,U,54675,999,17478,.6312104E-4,.39E-6,0
ONEWEB-0615,2022-166AL,2026-07-12T12:47:51.786528,13.21825523,.00021668,87.9235,238.9437,101.5343,258.6034,0,U,54676,999,17479,-.4697637E-3,-.181E-5,0
ONEWEB-0655,2022-166AM,2026-07-12T14:02:57.455808,13.21823499,.00018922,87.9236,238.9342,101.8604,258.2742,0,U,54677,999,17479,-.42513479E-4,-.5E-7,0
ONEWEB-0659,2022-166AN,2026-07-12T12:38:11.130144,13.21824416,.00021249,87.9232,238.9462,94.1662,265.9715,0,U,54678,999,17487,.11799961E-3,.62E-6,0
ONEWEB-0685,2022-166AP,2026-07-12T12:37:42.906720,13.21848912,.00016875,87.9231,238.9363,90.3904,269.7423,0,U,54679,999,17476,.2472354E-3,.115E-5,0
ONEWEB-0712,2022-166AQ,2026-07-12T12:27:20.861280,13.16595339,.00017717,87.9083,223.7429,106.3918,253.7408,0,U,54680,999,17539,.10557766E-3,.53E-6,0
ONEWEB-0714,2022-166AR,2026-07-12T12:45:28.537920,13.21825546,.00019808,87.9235,238.9339,104.7284,255.4070,0,U,54681,999,17488,.12426615E-3,.64E-6,0
ONEWEB-0532,2023-004A,2026-07-12T11:18:24.956352,13.17648781,.00020023,87.9144,0.8342,82.3807,277.7552,0,U,55140,999,17091,.9963369E-5,.17E-6,0
ONEWEB-0533,2023-004B,2026-07-12T11:06:59.962464,13.12443571,.00016362,87.8958,345.6441,93.3326,266.7990,0,U,55141,999,17137,-.58906559E-3,-.199E-5,0
ONEWEB-0541,2023-004C,2026-07-12T12:18:28.842912,13.11414874,.00020514,87.8887,16.0161,91.0141,269.1222,0,U,55142,999,16926,.58985805E-3,.222E-5,0
ONEWEB-0543,2023-004D,2026-07-12T10:20:16.328256,13.18686416,.00018397,87.9183,330.4478,104.6269,255.5067,0,U,55143,999,17302,-.10402295E-4,.9E-7,0
ONEWEB-0544,2023-004E,2026-07-12T08:21:17.668224,13.18687239,.00020434,87.9185,330.4638,102.7965,257.3395,0,U,55144,999,17301,.84887309E-4,.46E-6,0
ONEWEB-0560,2023-004F,2026-07-11T19:26:44.770560,13.18683684,.00020503,87.9173,330.5602,106.1097,254.0261,0,U,55145,999,17295,-.9184441E-4,-.23E-6,0
ONEWEB-0565,2023-004G,2026-07-12T09:51:08.682624,13.18687182,.00022306,87.9164,330.4659,95.9025,264.2362,0,U,55146,999,17302,.12855169E-3,.64E-6,0
ONEWEB-0567,2023-004H,2026-07-12T07:52:09.812640,13.18687574,.00022545,87.9186,330.4693,98.2687,261.8701,0,U,55147,999,17301,.12442328E-3,.62E-6,0
ONEWEB-0569,2023-004J,2026-07-11T20:12:29.743488,13.13471781,.00026722,87.8985,315.3145,114.1034,246.0375,0,U,55148,999,17341,-.44037975E-3,-.148E-5,0
ONEWEB-0570,2023-004K,2026-07-12T09:29:17.039040,13.18687028,.00020754,87.9182,330.4539,86.1751,273.9618,0,U,55149,999,17301,.19876071E-4,.21E-6,0
ONEWEB-0571,2023-004L,2026-07-12T09:19:35.499648,13.18682023,.00028712,87.9166,330.4542,112.8516,247.2920,0,U,55150,999,17302,-.14550975E-2,-.561E-5,0
