ONEWEB-0597             
1 54663U 22166X   26193.49455347 -.00000032  00000+0 -10892-3 0  9992
2 54663  87.9233 238.9508 0001936  94.2844 265.8512 13.21823471174882
ONEWEB-0600             
1 54664U 22166Y   26193.55176774  .00000069  00000+0  13635-3 0  9990
2 54664  87.9240 238.9301 0001936 100.2402 259.8951 13.21825604174868
ONEWEB-0601             
1 54665U 22166Z   26193.54334574  .00000081  00000+0  16387-3 0  9995
2 54665  87.9233 238.9485 0001808  93.1688 266.9653 13.21824927175055
ONEWEB-0602             
1 54666U 22166AA  26193.58454645  .00000004  00000+0 -21015-4 0  9993
2 54666  87.9231 238.9461 0001881 102.4058 257.7286 13.21823797174901
ONEWEB-0603             
1 54667U 22166AB  26193.59042952  .00000141  00000+0  30991-3 0  9992
2 54667  87.9255 238.9036 0002016 106.6657 253.4699 13.21823903174830
ONEWEB-0604             
1 54668U 22166AC  26193.57865596 -.00000018  00000+0 -75990-4 0  9992
2 54668  87.9247 238.9221 0002087  98.5673 261.5697 13.21824311174790
ONEWEB-0605             
1 54669U 22166AD  26193.57192804  .00000020  00000+0  17087-4 0  9992
2 54669  87.9238 238.9349 0001930  82.7799 277.3555 13.21823970174868
ONEWEB-0606             
1 54670U 22166AE  26193.59380354  .00000048  00000+0  83705-4 0  9995
2 54670  87.9234 238.9430 0002169 101.1860 258.9518 13.21824996174927
ONEWEB-0607             
1 54671U 22166AF  26193.56017698  .00000033  00000+0  47748-4 0  9992
2 54671  87.9240 238.9230 0001923  95.8814 264.2539 13.21825690174899
ONEWEB-0608             
1 54672U 22166AG  26193.56687779  .00000038  00000+0  60311-4 0  9992
2 54672  87.9250 238.9181 0001816  82.1685 277.9656 13.21823626174902
ONEWEB-0610             
1 54673U 22166AH  26193.54671949  .00000064  00000+0  12255-3 0  9995
2 54673  87.9224 238.9358 0001463  92.9089 267.2213 13.21825753174808
ONEWEB-0611             
1 54674U 22166AJ  26193.53996706 -.00000010  00000+0 -55830-4 0  9996
2 54674  87.9234 238.9305 0002204  97.9157 262.2227 13.21826073174791
ONEWEB-0612             
1 54675U 22166AK  26193.55344237  .00000039  00000+0  63121-4 0  9996
2 54675  87.9245 238.9271 0001965  92.7803 267.3556 13.21826308174781
ONEWEB-0615             
1 54676U 22166AL  26193.53323827 -.00000181  00000+0 -46976-3 0  9995
2 54676  87.9235 238.9437 0002166 101.5343 258.6034 13.21825523174790
ONEWEB-0655             
1 54677U 22166AM  26193.58538722 -.00000005  00000+0 -42513-4 0  9992
2 54677  87.9236 238.9342 0001892 101.8604 258.2742 13.21823499174797
ONEWEB-0659             
1 54678U 22166AN  26193.52651771  .00000062  00000+0  11800-3 0  9992
2 54678  87.9232 238.9462 0002124  94.1662 265.9715 13.21824416174878
ONEWEB-0685             
1 54679U 22166AP  26193.52619105  .00000115  00000+0  24724-3 0  9996
2 54679  87.9231 238.9363 0001687  90.3904 269.7423 13.21848912174761
ONEWEB-0712             
1 54680U 22166AQ  26193.51899145  .00000053  00000+0  10558-3 0  9992
2 54680  87.9083 223.7429 0001771 106.3918 253.7408 13.16595339175392
ONEWEB-0714             
1 54681U 22166AR  26193.53158030  .00000064  00000+0  12427-3 0  9995
2 54681  87.9235 238.9339 0001980 104.7284 255.4070 13.21825546174889
ONEWEB-0532             
1 55140U 23004A   26193.47112218  .00000017  00000+0  99634-5 0  9994
2 55140  87.9144   0.8342 0002002  82.3807 277.7552 13.17648781170918
ONEWEB-0533             
1 55141U 23004B   26193.46319401 -.00000199  00000+0 -58907-3 0  9996
2 55141  87.8958 345.6441 0001636  93.3326 266.7990 13.12443571171371
ONEWEB-0541             
1 55142U 23004C   26193.51283383  .00000222  00000+0  58986-3 0  9994
2 55142  87.8887  16.0161 0002051  91.0141 269.1222 13.11414874169266
ONEWEB-0543             
1 55143U 23004D   26193.43074454  .00000009  00000+0 -10402-4 0  9999
2 55143  87.9183 330.4478 0001839 104.6269 255.5067 13.18686416173021
ONEWEB-0544             
1 55144U 23004E   26193.34812116  .00000046  00000+0  84887-4 0  9993
2 55144  87.9185 330.4638 0002043 102.7965 257.3395 13.18687239173019
ONEWEB-0560             
1 55145U 23004F   26192.81024040 -.00000023  00000+0 -91844-4 0  9994
2 55145  87.9173 330.5602 0002050 106.1097 254.0261 13.18683684172959
ONEWEB-0565             
1 55146U 23004G   26193.41051716  .00000064  00000+0  12855-3 0  9999
2 55146  87.9164 330.4659 0002230  95.9025 264.2362 13.18687182173028
ONEWEB-0567             
1 55147U 23004H   26193.32789135  .00000062  00000+0  12442-3 0  9993
2 55147  87.9186 330.4693 0002254  98.2687 261.8701 13.18687574173011
ONEWEB-0569             
1 55148U 23004J   26192.84201092 -.00000148  00000+0 -44038-3 0  9994
2 55148  87.8985 315.3145 0002672 114.1034 246.0375 13.13471781173412
ONEWEB-0570             
1 55149U 23004K   26193.39533610  .00000021  00000+0  19876-4 0  9991
2 55149  87.9182 330.4539 0002075  86.1751 273.9618 13.18687028173012
ONEWEB-0571             
1 55150U 23004L   26193.38860532 -.00000561  00000+0 -14551-2 0  9992
2 55150  87.9166 330.4542 0002871 112.8516 247.2920 13.18682023173021
